{
    "links": {
        "self": "http://www.neowsapp.com/rest/v1/neo/54087864?api_key=iIulBulltgU6a56xZRHN4H3l9WmuAYTsLGpBGhQ2"
    },
    "id": "54087864",
    "neo_reference_id": "54087864",
    "name": "(2020 VE6)",
    "designation": "2020 VE6",
    "nasa_jpl_url": "http://ssd.jpl.nasa.gov/sbdb.cgi?sstr=54087864",
    "absolute_magnitude_h": 23.604,
    "estimated_diameter": {
        "kilometers": {
            "estimated_diameter_min": 0.0505539363,
            "estimated_diameter_max": 0.113042038
        },
        "meters": {
            "estimated_diameter_min": 50.5539362686,
            "estimated_diameter_max": 113.0420380267
        },
        "miles": {
            "estimated_diameter_min": 0.0314127499,
            "estimated_diameter_max": 0.0702410442
        },
        "feet": {
            "estimated_diameter_min": 165.8593762673,
            "estimated_diameter_max": 370.8728400395
        }
    },
    "is_potentially_hazardous_asteroid": false,
    "close_approach_data": [
        {
            "close_approach_date": "2020-11-30",
            "close_approach_date_full": "2020-Nov-30 15:39",
            "epoch_date_close_approach": 1606750740000,
            "relative_velocity": {
                "kilometers_per_second": "8.4600925462",
                "kilometers_per_hour": "30456.3331663234",
                "miles_per_hour": "18924.3810165969"
            },
            "miss_distance": {
                "astronomical": "0.122001432",
                "lunar": "47.458557048",
                "kilometers": "18251154.36414984",
                "miles": "11340741.444714192"
            },
            "orbiting_body": "Earth"
        }
    ],
    "orbital_data": {
        "orbit_id": "5",
        "orbit_determination_date": "2020-11-25 05:21:38",
        "first_observation_date": "2020-11-14",
        "last_observation_date": "2020-11-25",
        "data_arc_in_days": 11,
        "observations_used": 24,
        "orbit_uncertainty": "8",
        "minimum_orbit_intersection": ".119429",
        "jupiter_tisserand_invariant": "3.813",
        "epoch_osculation": "2459169.5",
        "eccentricity": ".4165285855454596",
        "semi_major_axis": "1.893100713701716",
        "inclination": "13.85545754924996",
        "ascending_node_longitude": "72.08200253564695",
        "orbital_period": "951.390927583544",
        "perihelion_distance": "1.10457015112844",
        "perihelion_argument": "354.7773969840135",
        "aphelion_distance": "2.681631276274992",
        "perihelion_time": "2459181.094932278672",
        "mean_anomaly": "355.612554735072",
        "mean_motion": ".3783933497393873",
        "equinox": "J2000",
        "orbit_class": {
            "orbit_class_type": "AMO",
            "orbit_class_description": "Near-Earth asteroid orbits similar to that of 1221 Amor",
            "orbit_class_range": "1.017 AU < q (perihelion) < 1.3 AU"
        }
    },
    "is_sentry_object": false
}